SATELIOT_4              
1 60537U 24149BX  26155.13364673  .00002274  00000+0  20460-3 0  9992
2 60537  97.6729 229.8647 0003220  86.8744 273.2846 14.96616852 98024
PICO-02A021             
1 60538U 24149BY  26154.45358512  .00005370  00000+0  40227-3 0  9995
2 60538  97.6731 233.4072 0006011  69.7180 290.4690 15.03106045 97671
ICEYE-X43               
1 60539U 24149BZ  26154.21663944  .00004456  00000+0  36396-3 0  9994
2 60539  97.6759 231.3751 0007144 126.0876 234.1010 14.99887483 98027
HAWK-10A                
1 60540U 24149CA  26155.66597265  .00001768  00000+0  16078-3 0  9996
2 60540  97.6885 231.7928 0004584 108.7410 251.4309 14.96470314 98116
UMBRA-09                
1 60541U 24149CB  26154.22313354  .00017416  00000+0  86864-3 0  9990
2 60541  97.6966 241.1946 0000429 102.7819 257.3461 15.17593985 98605
QPS-SAR-8 (AMATERU-IV)  
1 60542U 24149CC  26155.08769259  .00006465  00000+0  47212-3 0  9991
2 60542  97.6671 234.3485 0004394 138.5123 221.6437 15.04002199 98303
ARCTIC WEATHER SATELLITE
1 60543U 24149CD  26155.12376351  .00001068  00000+0  11685-3 0  9993
2 60543  97.6803 225.9623 0003261 129.1827 230.9681 14.89809031 97350
CAPELLA-15 (ACADIA-5)   
1 60544U 24149CE  26154.77891544  .00007077  00000+0  69564-3 0  9995
2 60544  97.6778 228.0181 0004894 117.0158 243.1561 14.92424531 97851
HAWK-10B                
1 60545U 24149CF  26155.66582172  .00001855  00000+0  16840-3 0  9996
2 60545  97.6805 231.1606 0006311 127.6470 232.5325 14.96471383 98111
ICEYE-X39               
1 60546U 24149CG  26155.66805137  .00004053  00000+0  33214-3 0  9993
2 60546  97.6765 232.8634 0003999 149.7721 210.3734 14.99819343 98246
UMBRA-10                
1 60547U 24149CH  26154.22268963  .00017894  00000+0  89226-3 0  9996
2 60547  97.6976 241.2208 0001520  75.1748 284.9653 15.17595745 98617
ICEYE-X33               
1 60548U 24149CJ  26154.30212545  .00004323  00000+0  34417-3 0  9996
2 60548  97.7229 233.5224 0001072 126.2639 233.8684 15.00904331 98121
ICEYE-X40               
1 60549U 24149CK  26154.20754681  .00001595  00000+0  14034-3 0  9999
2 60549  97.6796 230.9286 0005768 120.9141 239.2649 14.97891594 97989
SATELIOT_1              
1 60550U 24149CL  26155.66940866  .00002507  00000+0  21708-3 0  9994
2 60550  97.6738 231.7766 0007507 115.2227 244.9775 14.98011841 98191
BRO-14                  
1 60551U 24149CM  26154.15068400  .00001310  00000+0  12139-3 0  9992
2 60551  97.6873 230.1804 0007860 136.2798 223.9047 14.96143157 97895
SATELIOT_3              
1 60552U 24149CN  26154.77676149  .00002494  00000+0  21603-3 0  9996
2 60552  97.6834 231.6772 0006615 117.5516 242.6379 14.98007756 98073
BRO-15                  
1 60553U 24149CP  26155.13607311  .00000943  00000+0  88866-4 0  9995
2 60553  97.6801 230.7619 0009199 126.3544 233.8528 14.96102801 98058
UM5-RIBAT               
1 60554U 24149CQ  26155.67304668  .00003688  00000+0  29353-3 0  9998
2 60554  97.6639 233.6423 0003929  81.2266 278.9403 15.01003103 98311
UM5-EOSAT               
1 60555U 24149CR  26155.04328431  .00004368  00000+0  34278-3 0  9992
2 60555  97.6670 233.9388 0008409 153.3644 206.8013 15.01423436 98243
LASARSAT                
1 62391U 24247Q   26154.92379714  .00036882  00000+0  75515-3 0  9992
2 62391  44.9754 336.7002 0008047 258.6055 101.3931 15.45494859 81266
CROCUBE                 
1 62394U 24247T   26150.99870369  .00044257  00000+0  86081-3 0  9995
2 62394  44.9730 356.3242 0007341 240.2660 119.7500 15.46917883 80680
TEVEL2-4                
1 63213U 25052D   26153.24759932  .00019833  00000+0  60334-3 0  9999
2 63213  97.3927  49.6197 0004090 133.0862 227.0724 15.34050425 67822
TEVEL2-5                
1 63214U 25052E   26155.68011441  .00020387  00000+0  62137-3 0  9995
2 63214  97.3911  52.0060 0004070 127.8276 232.3335 15.33985737 68191
TEVEL2-6                
1 63215U 25052F   26154.64839894  .00020133  00000+0  61519-3 0  9993
2 63215  97.3918  50.9581 0004181 130.1242 230.0368 15.33906822 68039
TEVEL2-1                
1 63217U 25052H   26153.69393788  .00019888  00000+0  61840-3 0  9998
2 63217  97.3886  49.6443 0003899 141.0246 219.1278 15.33355434 67873
TEVEL2-3                
1 63218U 25052J   26154.21113612  .00019661  00000+0  61001-3 0  9992
2 63218  97.3892  50.1814 0003877 141.5958 218.5561 15.33427572 67951
TEVEL2-2                
1 63219U 25052K   26154.60793555  .00020300  00000+0  63028-3 0  9999
2 63219  97.3889  50.5598 0003812 141.3409 218.8107 15.33398099 68017
TEVEL2-9                
1 63237U 25052AD  26155.67873848  .00017126  00000+0  56461-3 0  9996
2 63237  97.3945  51.0324 0006594 167.3372 192.8036 15.31497239 68117
TEVEL2-7                
1 63238U 25052AE  26154.60632626  .00017541  00000+0  58397-3 0  9997
2 63238  97.3955  49.8841 0006417 171.2563 188.8791 15.31176236 67942
TEVEL2-8                
1 63239U 25052AF  26154.94119385  .00017135  00000+0  57066-3 0  9998
2 63239  97.3952  50.1954 0006473 170.8239 189.3121 15.31169698 67999
